CCSDS_OEM_VERS = 1.0
CREATION_DATE  = 2017-05-11T10:58:04
ORIGINATOR     = GMAT USER

META_START
OBJECT_NAME          = MOPSSat_alt_35785_km_RAAN_0_035
OBJECT_ID            = SatId
CENTER_NAME          = Earth
REF_FRAME            = EME2000
TIME_SYSTEM          = UTC
START_TIME           = 2017-01-01T00:00:00.000
USEABLE_START_TIME   = 2017-01-01T00:00:00.000
USEABLE_STOP_TIME    = 2017-01-02T00:00:00.000
STOP_TIME            = 2017-01-02T00:00:00.000
INTERPOLATION        = Lagrange
INTERPOLATION_DEGREE = 7 
META_STOP


                                                                                   

2017-01-01T19:05:50.000   1.250831836601346e+04  -4.026476333235944e+04  -3.511853967198948e+02   2.936245394271631e+00   9.121858505969062e-01   7.849883280749011e-03
2017-01-01T19:06:00.000   1.253767749138176e+04  -4.025563076938791e+04  -3.511068047153771e+02   2.935579534441330e+00   9.143266985081989e-01   7.868517231529242e-03
2017-01-01T19:06:10.000   1.256702995062671e+04  -4.024647680028029e+04  -3.510280263915832e+02   2.934912113534105e+00   9.164670603473588e-01   7.887146985653858e-03
2017-01-01T19:06:20.000   1.259637572815435e+04  -4.023730142989715e+04  -3.509490617904790e+02   2.934243131904175e+00   9.186069349772296e-01   7.905772533245007e-03
2017-01-01T19:06:30.000   1.262571480835909e+04  -4.022810466311588e+04  -3.508699109541755e+02   2.933572589906981e+00   9.207463212598067e-01   7.924393864417479e-03
2017-01-01T19:06:40.000   1.265504717562337e+04  -4.021888650482941e+04  -3.507905739249186e+02   2.932900487899103e+00   9.228852180562114e-01   7.943010969278429e-03
2017-01-01T19:06:50.000   1.268437281403649e+04  -4.020964696003772e+04  -3.507110507458769e+02   2.932226826244926e+00   9.250236242061902e-01   7.961623837748982e-03
2017-01-01T19:07:00.000   1.271369170777370e+04  -4.020038603372579e+04  -3.506313414600907e+02   2.931551605307738e+00   9.271615385557554e-01   7.980232459804802e-03
2017-01-01T19:07:10.000   1.274300384094673e+04  -4.019110373091130e+04  -3.505514461108822e+02   2.930874825453214e+00   9.292989599462894e-01   7.998836825381234e-03
2017-01-01T19:07:20.000   1.277230919826536e+04  -4.018180005643529e+04  -3.504713647400546e+02   2.930196487034150e+00   9.314358872627807e-01   8.017436924793191e-03
2017-01-01T19:07:30.000   1.280160776437580e+04  -4.017247501517129e+04  -3.503910973896915e+02   2.929516590405709e+00   9.335723193855838e-01   8.036032748315226e-03
2017-01-01T19:07:40.000   1.283089952401044e+04  -4.016312861197843e+04  -3.503106441017534e+02   2.928835135922010e+00   9.357082552013376e-01   8.054624286276589e-03
2017-01-01T19:07:50.000   1.286018446160752e+04  -4.015376085181951e+04  -3.502300049190941e+02   2.928152123944726e+00   9.378436935752301e-01   8.073211528819846e-03
2017-01-01T19:08:00.000   1.288946256159380e+04  -4.014437173967423e+04  -3.501491798847134e+02   2.927467554836764e+00   9.399786333716119e-01   8.091794466080255e-03
2017-01-01T19:08:10.000   1.291873380838413e+04  -4.013496128053790e+04  -3.500681690417470e+02   2.926781428962169e+00   9.421130734539654e-01   8.110373088185532e-03
2017-01-01T19:08:20.000   1.294799818610097e+04  -4.012552947951487e+04  -3.499869724342691e+02   2.926093746692936e+00   9.442470126644513e-01   8.128947385077771e-03
2017-01-01T19:08:30.000   1.297725567895257e+04  -4.011607634169379e+04  -3.499055901062213e+02   2.925404508399921e+00   9.463804498514875e-01   8.147517346753537e-03
2017-01-01T19:08:40.000   1.300650627108112e+04  -4.010660187219752e+04  -3.498240221018394e+02   2.924713714456464e+00   9.485133838586711e-01   8.166082963167433e-03
2017-01-01T19:08:50.000   1.303574994723383e+04  -4.009710607596553e+04  -3.497422684637814e+02   2.924021365222545e+00   9.506458135737194e-01   8.184644224658094e-03
2017-01-01T19:09:00.000   1.306498669209007e+04  -4.008758895797173e+04  -3.496603292350028e+02   2.923327461060647e+00   9.527777378794013e-01   8.203201121521089e-03
2017-01-01T19:09:10.000   1.309421649043511e+04  -4.007805052316844e+04  -3.495782044582744e+02   2.922632002331688e+00   9.549091556662092e-01   8.221753644119211e-03
2017-01-01T19:09:20.000   1.312343932669270e+04  -4.006849077663629e+04  -3.494958941774722e+02   2.921934989405934e+00   9.570400657982705e-01   8.240301782585743e-03
2017-01-01T19:09:30.000   1.315265518531090e+04  -4.005890972346098e+04  -3.494133984365164e+02   2.921236422654024e+00   9.591704671414862e-01   8.258845527069427e-03
2017-01-01T19:09:40.000   1.318186405067598e+04  -4.004930736876054e+04  -3.493307172796069e+02   2.920536302448953e+00   9.613003585572524e-01   8.277384867679762e-03
2017-01-01T19:09:50.000   1.321106590713628e+04  -4.003968371767941e+04  -3.492478507511716e+02   2.919834629165644e+00   9.634297389041993e-01   8.295919794502189e-03
2017-01-01T19:10:00.000   1.324026073903090e+04  -4.003003877537748e+04  -3.491647988957729e+02   2.919131403180148e+00   9.655586070402798e-01   8.314450297616259e-03
2017-01-01T19:10:10.000   1.326944853070028e+04  -4.002037254702686e+04  -3.490815617580784e+02   2.918426624869401e+00   9.676869618235473e-01   8.332976367102386e-03
2017-01-01T19:10:20.000   1.329862926659081e+04  -4.001068503777795e+04  -3.489981393825706e+02   2.917720294608765e+00   9.698148021197796e-01   8.351497993108213e-03
2017-01-01T19:10:30.000   1.332780293118498e+04  -4.000097625278162e+04  -3.489145318137362e+02   2.917012412773628e+00   9.719421267973876e-01   8.370015165804295e-03
2017-01-01T19:10:40.000   1.335696950900147e+04  -3.999124619718940e+04  -3.488307390960686e+02   2.916302979739436e+00   9.740689347274178e-01   8.388527875384130e-03
2017-01-01T19:10:50.000   1.338612898466434e+04  -3.998149487612949e+04  -3.487467612738610e+02   2.915591995879923e+00   9.761952247886050e-01   8.407036112108133e-03
2017-01-01T19:11:00.000   1.341528134279906e+04  -3.997172229474210e+04  -3.486625983915112e+02   2.914879461569709e+00   9.783209958597816e-01   8.425539866237586e-03
2017-01-01T19:11:10.000   1.344442656802194e+04  -3.996192845818317e+04  -3.485782504935531e+02   2.914165377184557e+00   9.804462468191163e-01   8.444039128027971e-03
2017-01-01T19:11:20.000   1.347356464491074e+04  -3.995211337163282e+04  -3.484937176247299e+02   2.913449743101993e+00   9.825709765419645e-01   8.462533887710275e-03
2017-01-01T19:11:30.000   1.350269555798191e+04  -3.994227704030476e+04  -3.484089998300740e+02   2.912732559701993e+00   9.846951838992097e-01   8.481024135476571e-03
2017-01-01T19:11:40.000   1.353181929177603e+04  -3.993241946941670e+04  -3.483240971546542e+02   2.912013827364826e+00   9.868188677634966e-01   8.499509861534256e-03
2017-01-01T19:11:50.000   1.356093583047481e+04  -3.992254066432232e+04  -3.482390096447108e+02   2.911293546480676e+00   9.889420269812988e-01   8.517991055862912e-03
2017-01-01T19:12:00.000   1.359004515836540e+04  -3.991264063035188e+04  -3.481537373462832e+02   2.910571717438013e+00   9.910646604067799e-01   8.536467708509051e-03
2017-01-01T19:12:10.000   1.361914725966768e+04  -3.990271937287122e+04  -3.480682803057177e+02   2.909848340627909e+00   9.931867668891967e-01   8.554939809476480e-03
2017-01-01T19:12:20.000   1.364824211920372e+04  -3.989277689705371e+04  -3.479826385677050e+02   2.909123416427402e+00   9.953083453217184e-01   8.573407349151232e-03
2017-01-01T19:12:30.000   1.367732972172996e+04  -3.988281320810763e+04  -3.478968121772353e+02   2.908396945216070e+00   9.974293945927271e-01   8.591870317877693e-03
2017-01-01T19:12:40.000   1.370641005208867e+04  -3.987282831122488e+04  -3.478108011791609e+02   2.907668927372306e+00   9.995499135968636e-01   8.610328706054705e-03
2017-01-01T19:12:50.000   1.373548309483031e+04  -3.986282221170753e+04  -3.477246056192816e+02   2.906939363282532e+00   1.001669901207490e+00   8.628782503895885e-03
2017-01-01T19:13:00.000   1.376454883449422e+04  -3.985279491487475e+04  -3.476382255435463e+02   2.906208253334412e+00   1.003789356297157e+00   8.647231701607775e-03
2017-01-01T19:13:10.000   1.379360725560820e+04  -3.984274642606160e+04  -3.475516609980416e+02   2.905475597916776e+00   1.005908277737573e+00   8.665676289389591e-03
2017-01-01T19:13:20.000   1.382265834241008e+04  -3.983267675071847e+04  -3.474649120298485e+02   2.904741397426860e+00   1.008026664379302e+00   8.684116257256501e-03
2017-01-01T19:13:30.000   1.385170207922317e+04  -3.982258589427836e+04  -3.473779786858989e+02   2.904005652260635e+00   1.010144515079141e+00   8.702551595277913e-03
2017-01-01T19:13:40.000   1.388073845030822e+04  -3.981247386220870e+04  -3.472908610134220e+02   2.903268362816575e+00   1.012261828689326e+00   8.720982293483536e-03
2017-01-01T19:13:50.000   1.390976744051876e+04  -3.980234065978335e+04  -3.472035590579807e+02   2.902529529479053e+00   1.014378604105315e+00   8.739408342279324e-03
2017-01-01T19:14:00.000   1.393878903464572e+04  -3.979218629231049e+04  -3.471160728654340e+02   2.901789152634938e+00   1.016494840218004e+00   8.757829732031467e-03
2017-01-01T19:14:10.000   1.396780321756574e+04  -3.978201076508145e+04  -3.470284024814965e+02   2.901047232669868e+00   1.018610535924538e+00   8.776246453160576e-03
2017-01-01T19:14:20.000   1.399680997386442e+04  -3.977181408349956e+04  -3.469405479528483e+02   2.900303769977652e+00   1.020725690100835e+00   8.794658495902516e-03
2017-01-01T19:14:30.000   1.402580928811629e+04  -3.976159625298532e+04  -3.468525093263185e+02   2.899558764953350e+00   1.022840301622012e+00   8.813065850486142e-03
2017-01-01T19:14:40.000   1.405480114488449e+04  -3.975135727897524e+04  -3.467642866488748e+02   2.898812217993188e+00   1.024954369362351e+00   8.831468507133053e-03
2017-01-01T19:14:50.000   1.408378552844294e+04  -3.974109716702305e+04  -3.466758799684960e+02   2.898064129501942e+00   1.027067892175046e+00   8.849866455881251e-03
